{"type": "FeatureCollection", "features": [ {"type": "Feature", "properties": {"norad_id": 39122, "name": "EUTELSAT 117 WEST A", "group": "eutelsat", "lat": 0.028670314066817335, "lon": 102.1848570794615, "alt_km": 35798.51461218664, "timestamp": "2025-12-06T09:34:16.589133+00:00", "meta": {"OBJECT_NAME": "EUTELSAT 117 WEST A", "OBJECT_ID": "2013-012A", "EPOCH": "2025-12-05T21:42:03.267072", "MEAN_MOTION": 1.00269631, "ECCENTRICITY": 0.00031482, "INCLINATION": 0.0164, "RA_OF_ASC_NODE": 321.5177, "ARG_OF_PERICENTER": 293.2936, "MEAN_ANOMALY": 28.8634, "EPHEMERIS_TYPE": 0, "CLASSIFICATION_TYPE": "U", "NORAD_CAT_ID": 39122, "ELEMENT_SET_NO": 999, "REV_AT_EPOCH": 4649, "BSTAR": 0, "MEAN_MOTION_DOT": -3e-08, "MEAN_MOTION_DDOT": 0}, "tle": {"line1": "1 39122U 13012A   25339.90420448 -.00000003  00000+0  00000+0 0  9999", "line2": "2 39122   0.0164 321.5177 0003148 293.2936  28.8634  1.00269631 46498"}}, "geometry": {"type": "Point", "coordinates": [102.1848570794615, 0.028670314066817335]}}, {"type": "Feature", "properties": {"norad_id": 39163, "name": "EUTELSAT 7B", "group": "eutelsat", "lat": -0.0659111410229655, "lon": -134.06687987487044, "alt_km": 35785.0523621478, "timestamp": "2025-12-06T09:34:16.589159+00:00", "meta": {"OBJECT_NAME": "EUTELSAT 7B", "OBJECT_ID": "2013-022A", "EPOCH": "2025-12-05T22:17:22.382592", "MEAN_MOTION": 1.00270215, "ECCENTRICITY": 0.00044143, "INCLINATION": 0.0685, "RA_OF_ASC_NODE": 6.4751, "ARG_OF_PERICENTER": 305.2782, "MEAN_ANOMALY": 104.5558, "EPHEMERIS_TYPE": 0, "CLASSIFICATION_TYPE": "U", "NORAD_CAT_ID": 39163, "ELEMENT_SET_NO": 999, "REV_AT_EPOCH": 4601, "BSTAR": 0, "MEAN_MOTION_DOT": 5.7e-07, "MEAN_MOTION_DDOT": 0}, "tle": {"line1": "1 39163U 13022A   25339.92873128  .00000057  00000+0  00000+0 0  9992", "line2": "2 39163   0.0685   6.4751 0004414 305.2782 104.5558  1.00270215 46013"}}, "geometry": {"type": "Point", "coordinates": [-134.06687987487044, -0.0659111410229655]}}, {"type": "Feature", "properties": {"norad_id": 39612, "name": "EXPRESS-AT1", "group": "eutelsat", "lat": -0.021111614663263032, "lon": -84.99799194402554, "alt_km": 35786.41376828392, "timestamp": "2025-12-06T09:34:16.589175+00:00", "meta": {"OBJECT_NAME": "EXPRESS-AT1", "OBJECT_ID": "2014-010A", "EPOCH": "2025-12-05T21:42:38.692800", "MEAN_MOTION": 1.00271318, "ECCENTRICITY": 6.089e-05, "INCLINATION": 0.0155, "RA_OF_ASC_NODE": 295.9635, "ARG_OF_PERICENTER": 243.441, "MEAN_ANOMALY": 277.2087, "EPHEMERIS_TYPE": 0, "CLASSIFICATION_TYPE": "U", "NORAD_CAT_ID": 39612, "ELEMENT_SET_NO": 999, "REV_AT_EPOCH": 4288, "BSTAR": 0, "MEAN_MOTION_DOT": 8.8e-07, "MEAN_MOTION_DDOT": 0}, "tle": {"line1": "1 39612U 14010A   25339.90461450  .00000088  00000+0  00000+0 0  9992", "line2": "2 39612   0.0155 295.9635 0000608 243.4410 277.2087  1.00271318 42883"}}, "geometry": {"type": "Point", "coordinates": [-84.99799194402554, -0.021111614663263032]}}, {"type": "Feature", "properties": {"norad_id": 39613, "name": "EXPRESS-AT2", "group": "eutelsat", "lat": 0.015474083512485757, "lon": -1.1399705532677074, "alt_km": 35785.26124110905, "timestamp": "2025-12-06T09:34:16.589188+00:00", "meta": {"OBJECT_NAME": "EXPRESS-AT2", "OBJECT_ID": "2014-010B", "EPOCH": "2025-12-05T21:12:36.853632", "MEAN_MOTION": 1.0026964, "ECCENTRICITY": 0.00014139, "INCLINATION": 0.0202, "RA_OF_ASC_NODE": 342.2731, "ARG_OF_PERICENTER": 301.1418, "MEAN_ANOMALY": 249.5228, "EPHEMERIS_TYPE": 0, "CLASSIFICATION_TYPE": "U", "NORAD_CAT_ID": 39613, "ELEMENT_SET_NO": 999, "REV_AT_EPOCH": 4256, "BSTAR": 0, "MEAN_MOTION_DOT": 0, "MEAN_MOTION_DDOT": 0}, "tle": {"line1": "1 39613U 14010B   25339.88375988  .00000000  00000+0  00000+0 0  9994", "line2": "2 39613   0.0202 342.2731 0001413 301.1418 249.5228  1.00269640 42564"}}, "geometry": {"type": "Point", "coordinates": [-1.1399705532677074, 0.015474083512485757]}}, {"type": "Feature", "properties": {"norad_id": 39773, "name": "EUTELSAT 3B", "group": "eutelsat", "lat": -0.05653656356677893, "lon": -137.9155871485821, "alt_km": 35766.28689877129, "timestamp": "2025-12-06T09:34:16.589201+00:00", "meta": {"OBJECT_NAME": "EUTELSAT 3B", "OBJECT_ID": "2014-030A", "EPOCH": "2025-12-05T22:16:07.502304", "MEAN_MOTION": 1.00271437, "ECCENTRICITY": 0.0004754, "INCLINATION": 0.0644, "RA_OF_ASC_NODE": 9, "ARG_OF_PERICENTER": 221.7183, "MEAN_ANOMALY": 181.3853, "EPHEMERIS_TYPE": 0, "CLASSIFICATION_TYPE": "U", "NORAD_CAT_ID": 39773, "ELEMENT_SET_NO": 999, "REV_AT_EPOCH": 4212, "BSTAR": 0, "MEAN_MOTION_DOT": 2.9e-07, "MEAN_MOTION_DDOT": 0}, "tle": {"line1": "1 39773U 14030A   25339.92786461  .00000029  00000+0  00000+0 0  9991", "line2": "2 39773   0.0644   9.0000 0004754 221.7183 181.3853  1.00271437 42121"}}, "geometry": {"type": "Point", "coordinates": [-137.9155871485821, -0.05653656356677893]}}, {"type": "Feature", "properties": {"norad_id": 40425, "name": "EUTELSAT 115 WEST B", "group": "eutelsat", "lat": -0.007856781000480612, "lon": 104.12699101718836, "alt_km": 35784.74010171648, "timestamp": "2025-12-06T09:34:16.589212+00:00", "meta": {"OBJECT_NAME": "EUTELSAT 115 WEST B", "OBJECT_ID": "2015-010B", "EPOCH": "2025-12-05T21:42:40.706784", "MEAN_MOTION": 1.00271075, "ECCENTRICITY": 4.108e-05, "INCLINATION": 0.0148, "RA_OF_ASC_NODE": 147.2879, "ARG_OF_PERICENTER": 288.3386, "MEAN_ANOMALY": 210.1252, "EPHEMERIS_TYPE": 0, "CLASSIFICATION_TYPE": "U", "NORAD_CAT_ID": 40425, "ELEMENT_SET_NO": 999, "REV_AT_EPOCH": 3945, "BSTAR": 0, "MEAN_MOTION_DOT": -1.6e-07, "MEAN_MOTION_DDOT": 0}, "tle": {"line1": "1 40425U 15010B   25339.90463781 -.00000016  00000+0  00000+0 0  9998", "line2": "2 40425   0.0148 147.2879 0000410 288.3386 210.1252  1.00271075 39458"}}, "geometry": {"type": "Point", "coordinates": [104.12699101718836, -0.007856781000480612]}}, {"type": "Feature", "properties": {"norad_id": 40875, "name": "EUTELSAT 8 WEST B", "group": "eutelsat", "lat": -0.060266138316351796, "lon": -149.0260562705095, "alt_km": 35774.01422617775, "timestamp": "2025-12-06T09:34:16.589224+00:00", "meta": {"OBJECT_NAME": "EUTELSAT 8 WEST B", "OBJECT_ID": "2015-039B", "EPOCH": "2025-12-05T22:13:07.788576", "MEAN_MOTION": 1.0027157, "ECCENTRICITY": 0.00041156, "INCLINATION": 0.0647, "RA_OF_ASC_NODE": 352.8633, "ARG_OF_PERICENTER": 264.0555, "MEAN_ANOMALY": 143.3492, "EPHEMERIS_TYPE": 0, "CLASSIFICATION_TYPE": "U", "NORAD_CAT_ID": 40875, "ELEMENT_SET_NO": 999, "REV_AT_EPOCH": 3771, "BSTAR": 0, "MEAN_MOTION_DOT": -5.6e-07, "MEAN_MOTION_DDOT": 0}, "tle": {"line1": "1 40875U 15039B   25339.92578459 -.00000056  00000+0  00000+0 0  9993", "line2": "2 40875   0.0647 352.8633 0004115 264.0555 143.3492  1.00271570 37718"}}, "geometry": {"type": "Point", "coordinates": [-149.0260562705095, -0.060266138316351796]}}, {"type": "Feature", "properties": {"norad_id": 41310, "name": "EUTELSAT 9B", "group": "eutelsat", "lat": 0.0066309252319122665, "lon": -132.04601518195275, "alt_km": 35769.37835745259, "timestamp": "2025-12-06T09:34:16.589236+00:00", "meta": {"OBJECT_NAME": "EUTELSAT 9B", "OBJECT_ID": "2016-005A", "EPOCH": "2025-12-05T22:17:59.823168", "MEAN_MOTION": 1.0027216, "ECCENTRICITY": 0.00050241, "INCLINATION": 0.0726, "RA_OF_ASC_NODE": 75.7145, "ARG_OF_PERICENTER": 191.28, "MEAN_ANOMALY": 151.4745, "EPHEMERIS_TYPE": 0, "CLASSIFICATION_TYPE": "U", "NORAD_CAT_ID": 41310, "ELEMENT_SET_NO": 999, "REV_AT_EPOCH": 3617, "BSTAR": 0, "MEAN_MOTION_DOT": 7.1e-07, "MEAN_MOTION_DDOT": 0}, "tle": {"line1": "1 41310U 16005A   25339.92916462  .00000071  00000+0  00000+0 0  9998", "line2": "2 41310   0.0726  75.7145 0005024 191.2800 151.4745  1.00272160 36170"}}, "geometry": {"type": "Point", "coordinates": [-132.04601518195275, 0.0066309252319122665]}}, {"type": "Feature", "properties": {"norad_id": 41382, "name": "EUTELSAT 65 WEST A", "group": "eutelsat", "lat": 0.017985471695353732, "lon": 153.75528649745596, "alt_km": 35790.834237247036, "timestamp": "2025-12-06T09:34:16.589250+00:00", "meta": {"OBJECT_NAME": "EUTELSAT 65 WEST A", "OBJECT_ID": "2016-014A", "EPOCH": "2025-12-05T21:56:46.855680", "MEAN_MOTION": 1.00269793, "ECCENTRICITY": 0.00028746, "INCLINATION": 0.0495, "RA_OF_ASC_NODE": 352.8072, "ARG_OF_PERICENTER": 270.9209, "MEAN_ANOMALY": 75.2231, "EPHEMERIS_TYPE": 0, "CLASSIFICATION_TYPE": "U", "NORAD_CAT_ID": 41382, "ELEMENT_SET_NO": 999, "REV_AT_EPOCH": 3559, "BSTAR": 0, "MEAN_MOTION_DOT": -2.67e-06, "MEAN_MOTION_DDOT": 0}, "tle": {"line1": "1 41382U 16014A   25339.91443120 -.00000267  00000+0  00000+0 0  9990", "line2": "2 41382   0.0495 352.8072 0002874 270.9209  75.2231  1.00269793 35594"}}, "geometry": {"type": "Point", "coordinates": [153.75528649745596, 0.017985471695353732]}}, {"type": "Feature", "properties": {"norad_id": 41589, "name": "EUTELSAT 117 WEST B", "group": "eutelsat", "lat": -0.014320595028139479, "lon": 101.97948429347264, "alt_km": 35786.156912707906, "timestamp": "2025-12-06T09:34:16.589264+00:00", "meta": {"OBJECT_NAME": "EUTELSAT 117 WEST B", "OBJECT_ID": "2016-038B", "EPOCH": "2025-12-05T16:33:57.002976", "MEAN_MOTION": 1.00266571, "ECCENTRICITY": 3.902e-05, "INCLINATION": 0.0079, "RA_OF_ASC_NODE": 160.8925, "ARG_OF_PERICENTER": 335.2257, "MEAN_ANOMALY": 70.1092, "EPHEMERIS_TYPE": 0, "CLASSIFICATION_TYPE": "U", "NORAD_CAT_ID": 41589, "ELEMENT_SET_NO": 999, "REV_AT_EPOCH": 3472, "BSTAR": 0, "MEAN_MOTION_DOT": -1e-08, "MEAN_MOTION_DDOT": 0}, "tle": {"line1": "1 41589U 16038B   25339.69024309 -.00000001  00000+0  00000+0 0  9990", "line2": "2 41589   0.0079 160.8925 0000390 335.2257  70.1092  1.00266571 34728"}}, "geometry": {"type": "Point", "coordinates": [101.97948429347264, -0.014320595028139479]}}]}